NORAD_CAT_ID,OBJECT_NAME,OBJECT_TYPE,EPOCH,MEAN_MOTION,ECCENTRICITY,INCLINATION,RA_OF_ASC_NODE,ARG_OF_PERICENTER,MEAN_ANOMALY,BSTAR,MEAN_MOTION_DOT,MEAN_MOTION_DDOT,TLE_LINE0,TLE_LINE1,TLE_LINE2,SEMIMAJOR_AXIS,PERIOD,APOGEE,PERIGEE,DECAYED
55628.0,STARLINK-5484,PAYLOAD,2023-12-12 14:19:06,14.9833468,0.0003063,69.9997,107.2496,263.6995,96.3815,-2.3118e-05,-3.69e-06,0.0,0 STARLINK-5484,1 55628U 23021A   23346.59660779 -.00000369  00000-0 -23118-4 0  9990,2 55628  69.9997 107.2496 0003063 263.6995  96.3815 14.98334680 45757,6950.178,96.107,574.172,569.915,0.0
55628.0,STARLINK-5484,PAYLOAD,2023-12-12 17:31:22,14.983372,0.0002915,69.9996,106.9126,259.4549,100.6282,-3.3766e-05,-4.96e-06,0.0,0 STARLINK-5484,1 55628U 23021A   23346.73012573 -.00000496  00000-0 -33766-4 0  9990,2 55628  69.9996 106.9126 0002915 259.4549 100.6282 14.98337200 45775,6950.171,96.107,574.062,570.01,0.0
55628.0,STARLINK-5484,PAYLOAD,2023-12-13 11:08:54,14.98301797,0.0002973,69.9996,105.0606,263.3905,96.6915,-0.00021937,-2.708e-05,0.0,0 STARLINK-5484,1 55628U 23021A   23347.46452104 -.00002708  00000-0 -21937-3 0  9993,2 55628  69.9996 105.0606 0002973 263.3905  96.6915 14.98301797 45580,6950.28,96.109,574.211,570.079,0.0
55628.0,STARLINK-5484,PAYLOAD,2023-12-13 14:21:10,14.98306781,0.0002614,70.0025,104.7277,220.2492,139.8474,-8.9776e-05,-1.163e-05,0.0,0 STARLINK-5484,1 55628U 23021A   23347.59803636 -.00001163  00000-0 -89776-4 0  9997,2 55628  70.0025 104.7277 0002614 220.2492 139.8474 14.98306781 45905,6950.265,96.108,573.946,570.313,0.0
55628.0,STARLINK-5484,PAYLOAD,2023-12-13 17:33:25,14.983228,0.0002983,69.9997,104.3879,258.5168,101.5656,2.0836e-05,1.56e-06,0.0,0 STARLINK-5484,1 55628U 23021A   23347.73154476  .00000156  00000-0  20836-4 0  9995,2 55628  69.9997 104.3879 0002983 258.5168 101.5656 14.98322800 45624,6950.215,96.107,574.153,570.007,0.0
55628.0,STARLINK-5484,PAYLOAD,2023-12-14 11:10:53,14.98334328,0.0003226,69.999,102.5355,267.3904,92.6886,0.00011874,1.324e-05,0.0,0 STARLINK-5484,1 55628U 23021A   23348.46589780  .00001324  00000-0  11874-3 0  9995,2 55628  69.9990 102.5355 0003226 267.3904  92.6886 14.98334328 45738,6950.18,96.107,574.287,569.802,0.0
55628.0,STARLINK-5484,PAYLOAD,2023-12-14 14:23:09,14.98335866,0.0002665,70.0005,102.1999,251.2173,108.8697,0.00020539,2.359e-05,0.0,0 STARLINK-5484,1 55628U 23021A   23348.59941448  .00002359  00000-0  20539-3 0  9999,2 55628  70.0005 102.1999 0002665 251.2173 108.8697 14.98335866 46058,6950.175,96.107,573.892,570.188,0.0
55628.0,STARLINK-5484,PAYLOAD,2023-12-14 17:35:25,14.9833763,0.0002566,70.0006,101.8628,249.8717,110.2166,0.00025484,2.95e-05,0.0,0 STARLINK-5484,1 55628U 23021A   23348.73293415  .00002950  00000-0  25484-3 0  9990,2 55628  70.0006 101.8628 0002566 249.8717 110.2166 14.98337630 46072,6950.169,96.107,573.818,570.251,0.0
55628.0,STARLINK-5484,PAYLOAD,2023-12-15 11:12:54,14.98343711,0.0002855,70.0014,100.0121,256.5259,103.5582,0.00032639,3.805e-05,0.0,0 STARLINK-5484,1 55628U 23021A   23349.46729541  .00003805  00000-0  32639-3 0  9995,2 55628  70.0014 100.0121 0002855 256.5259 103.5582 14.98343711 45889,6950.15,96.106,574.0,570.031,0.0
55628.0,STARLINK-5484,PAYLOAD,2023-12-15 14:25:10,14.98342873,0.00027,70.0019,99.6752,257.7994,102.2862,0.00039611,4.638e-05,0.0,0 STARLINK-5484,1 55628U 23021A   23349.60081537  .00004638  00000-0  39611-3 0  9999,2 55628  70.0019  99.6752 0002700 257.7994 102.2862 14.98342873 46207,6950.153,96.106,573.895,570.142,0.0
55628.0,STARLINK-5484,PAYLOAD,2023-12-15 17:37:26,14.98344756,0.0002626,70.002,99.339,253.9618,106.1252,0.00036479,4.264e-05,0.0,0 STARLINK-5484,1 55628U 23021A   23349.73433327  .00004264  00000-0  36479-3 0  9995,2 55628  70.0020  99.3390 0002626 253.9618 106.1252 14.98344756 46222,6950.147,96.106,573.837,570.187,0.0
55628.0,STARLINK-5484,PAYLOAD,2023-12-16 11:14:54,14.98335564,0.0002477,70.0023,97.4883,252.6608,107.428,0.00031519,3.67e-05,0.0,0 STARLINK-5484,1 55628U 23021A   23350.46869088  .00003670  00000-0  31519-3 0  9994,2 55628  70.0023  97.4883 0002477 252.6608 107.4280 14.98335564 46031,6950.176,96.107,573.762,570.319,0.0
55628.0,STARLINK-5484,PAYLOAD,2023-12-16 14:27:10,14.9834135,0.0002479,70.0027,97.152,248.9667,111.1227,1.6024e-05,9.8e-07,0.0,0 STARLINK-5484,1 55628U 23021A   23350.60220791  .00000098  00000-0  16024-4 0  9998,2 55628  70.0027  97.1520 0002479 248.9667 111.1227 14.98341350 46353,6950.158,96.106,573.746,570.3,0.0
55628.0,STARLINK-5484,PAYLOAD,2023-12-16 17:39:26,14.9834233,0.0002463,70.0023,96.8143,271.8896,88.1981,2.1031e-05,1.58e-06,0.0,0 STARLINK-5484,1 55628U 23021A   23350.73572762  .00000158  00000-0  21031-4 0  9991,2 55628  70.0023  96.8143 0002463 271.8896  88.1981 14.98342330 46379,6950.155,96.106,573.732,570.308,0.0
55628.0,STARLINK-5484,PAYLOAD,2023-12-17 03:16:16,14.98330221,0.0002812,70.0003,95.8044,276.9737,83.1102,-0.00014208,-1.788e-05,0.0,0 STARLINK-5484,1 55628U 23021A   23351.13629718 -.00001788  00000-0 -14208-3 0  9999,2 55628  70.0003  95.8044 0002812 276.9737  83.1102 14.98330221 46134,6950.192,96.107,574.012,570.103,0.0
55628.0,STARLINK-5484,PAYLOAD,2023-12-17 11:16:55,14.98335448,0.000313,69.9993,94.9605,271.4145,88.6656,-7.4096e-05,-9.77e-06,0.0,0 STARLINK-5484,1 55628U 23021A   23351.47009054 -.00000977  00000-0 -74096-4 0  9992,2 55628  69.9993  94.9605 0003130 271.4145  88.6656 14.98335448 46184,6950.176,96.107,574.216,569.866,0.0
55628.0,STARLINK-5484,PAYLOAD,2023-12-17 14:29:11,14.98337597,0.0002693,69.9994,94.6241,250.6372,109.4496,-1.3169e-05,-2.5e-06,0.0,0 STARLINK-5484,1 55628U 23021A   23351.60360702 -.00000250  00000-0 -13169-4 0  9995,2 55628  69.9994  94.6241 0002693 250.6372 109.4496 14.98337597 46509,6950.169,96.107,573.906,570.163,0.0
55628.0,STARLINK-5484,PAYLOAD,2023-12-17 19:17:34,14.98359387,0.0002717,69.9994,94.1186,264.1393,95.9456,-0.0002554,-3.141e-05,0.0,0 STARLINK-5484,1 55628U 23021A   23351.80387438 -.00003141  00000-0 -25540-3 0  9999,2 55628  69.9994  94.1186 0002717 264.1393  95.9456 14.98359387 46238,6950.102,96.105,573.855,570.079,0.0
55628.0,STARLINK-5484,PAYLOAD,2023-12-17 20:53:43,14.98346779,0.0003087,69.9993,93.9502,270.1614,89.9192,6.5991e-05,6.95e-06,0.0,0 STARLINK-5484,1 55628U 23021A   23351.87063899  .00000695  00000-0  65991-4 0  9992,2 55628  69.9993  93.9502 0003087 270.1614  89.9192 14.98346779 46545,6950.141,96.106,574.152,569.86,0.0
55628.0,STARLINK-5484,PAYLOAD,2023-12-18 03:18:15,14.98339142,0.0003177,70.0004,93.2774,265.9287,94.1509,7.6247e-06,-2e-08,0.0,0 STARLINK-5484,1 55628U 23021A   23352.13768116 -.00000002  00000-0  76247-5 0  9996,2 55628  70.0004  93.2774 0003177 265.9287  94.1509 14.98339142 46280,6950.165,96.106,574.238,569.822,0.0
55628.0,STARLINK-5484,PAYLOAD,2023-12-18 14:31:11,14.98349265,0.0003039,70.0006,92.0992,269.0077,91.0734,0.0004562,5.357e-05,0.0,0 STARLINK-5484,1 55628U 23021A   23352.60499667  .00005357  00000-0  45620-3 0  9996,2 55628  70.0006  92.0992 0003039 269.0077  91.0734 14.98349265 46654,6950.133,96.106,574.11,569.886,0.0
55628.0,STARLINK-5484,PAYLOAD,2023-12-18 19:19:35,14.98355602,0.0003026,70.0007,91.5942,269.4881,90.5931,0.00070571,8.343e-05,0.0,0 STARLINK-5484,1 55628U 23021A   23352.80527351  .00008343  00000-0  70571-3 0  9991,2 55628  70.0007  91.5942 0003026 269.4881  90.5931 14.98355602 46382,6950.114,96.105,574.082,569.876,0.0
55628.0,STARLINK-5484,PAYLOAD,2023-12-18 20:55:44,14.98333228,0.0002961,70.0008,91.4259,269.8854,90.1965,-3.2316e-06,-1.32e-06,0.0,0 STARLINK-5484,1 55628U 23021A   23352.87204019 -.00000132  00000-0 -32316-5 0  9998,2 55628  70.0008  91.4259 0002961 269.8854  90.1965 14.98333228 46691,6950.183,96.107,574.106,569.99,0.0
55628.0,STARLINK-5484,PAYLOAD,2023-12-19 03:20:16,14.98329135,0.0003076,70.0007,90.7524,265.9711,94.1096,-0.00011986,-1.523e-05,0.0,0 STARLINK-5484,1 55628U 23021A   23353.13908094 -.00001523  00000-0 -11986-3 0  9995,2 55628  70.0007  90.7524 0003076 265.9711  94.1096 14.98329135 46437,6950.196,96.107,574.198,569.923,0.0
55628.0,STARLINK-5484,PAYLOAD,2023-12-19 14:33:12,14.98337848,0.0003265,70.0007,89.5741,270.0214,90.0571,0.00041217,4.829e-05,0.0,0 STARLINK-5484,1 55628U 23021A   23353.60639762  .00004829  00000-0  41217-3 0  9990,2 55628  70.0007  89.5741 0003265 270.0214  90.0571 14.98337848 46803,6950.169,96.106,574.303,569.764,0.0
55628.0,STARLINK-5484,PAYLOAD,2023-12-19 19:21:36,14.9834201,0.0003291,70.0007,89.069,269.8347,90.2435,0.00072822,8.609e-05,0.0,0 STARLINK-5484,1 55628U 23021A   23353.80667654  .00008609  00000-0  72822-3 0  9999,2 55628  70.0007  89.0690 0003291 269.8347  90.2435 14.98342010 46531,6950.156,96.106,574.308,569.733,0.0
55628.0,STARLINK-5484,PAYLOAD,2023-12-20 03:22:17,14.98313831,0.0003297,70.0008,88.2271,266.7786,93.2996,-0.00029165,-3.57e-05,0.0,0 STARLINK-5484,1 55628U 23021A   23354.14048435 -.00003570  00000-0 -29165-3 0  9993,2 55628  70.0008  88.2271 0003297 266.7786  93.2996 14.98313831 46586,6950.243,96.108,574.399,569.816,0.0
55628.0,STARLINK-5484,PAYLOAD,2023-12-20 12:59:06,14.98325432,0.0003405,70.0008,87.2169,268.5874,91.4895,0.0015163,0.00018044,0.0,0 STARLINK-5484,1 55628U 23021A   23354.54104737  .00018044  00000-0  15163-2 0  9997,2 55628  70.0008  87.2169 0003405 268.5874  91.4895 14.98325432 46948,6950.207,96.107,574.439,569.705,0.0
55628.0,STARLINK-5484,PAYLOAD,2023-12-20 19:23:38,14.98334932,0.000339,70.0008,86.5438,267.097,92.9801,0.0010574,0.00012548,0.0,0 STARLINK-5484,1 55628U 23021A   23354.80808641  .00012548  00000-0  10574-2 0  9995,2 55628  70.0008  86.5438 0003390 267.0970  92.9801 14.98334932 46682,6950.178,96.107,574.399,569.687,0.0
55628.0,STARLINK-5484,PAYLOAD,2023-12-20 20:59:46,14.98340297,0.0003376,70.0009,86.3755,267.8248,92.2524,0.0013922,0.00016563,0.0,0 STARLINK-5484,1 55628U 23021A   23354.87484605  .00016563  00000-0  13922-2 0  9993,2 55628  70.0009  86.3755 0003376 267.8248  92.2524 14.98340297 46993,6950.161,96.106,574.372,569.68,0.0
